CCSDS_OMM_VERS = 2.0
CREATION_DATE  = 
ORIGINATOR     = 

OBJECT_NAME    = COSMOS 1933
OBJECT_ID      = 1988-020A
CENTER_NAME    = EARTH
REF_FRAME      = TEME
TIME_SYSTEM    = UTC
MEAN_ELEMENT_THEORY = SGP/SGP4

EPOCH          = 2025-12-22T07:35:35.943936
MEAN_MOTION    = 15.17184739
ECCENTRICITY   = .00062204
INCLINATION    = 82.5141
RA_OF_ASC_NODE = 327.4154
ARG_OF_PERICENTER = 102.9929
MEAN_ANOMALY   = 257.2000

EPHEMERIS_TYPE = 0
CLASSIFICATION_TYPE = U
NORAD_CAT_ID   = 18958
ELEMENT_SET_NO = 999
REV_AT_EPOCH   = 3849
BSTAR          = .2142837E-3
MEAN_MOTION_DOT = .4287E-4
MEAN_MOTION_DDOT = 0

CCSDS_OMM_VERS = 2.0
CREATION_DATE  = 
ORIGINATOR     = 

OBJECT_NAME    = SL-3 R/B
OBJECT_ID      = 1988-032B
CENTER_NAME    = EARTH
REF_FRAME      = TEME
TIME_SYSTEM    = UTC
MEAN_ELEMENT_THEORY = SGP/SGP4

EPOCH          = 2025-12-22T14:41:47.754528
MEAN_MOTION    = 15.18833825
ECCENTRICITY   = .00277188
INCLINATION    = 97.5089
RA_OF_ASC_NODE = 335.2649
ARG_OF_PERICENTER = 139.3845
MEAN_ANOMALY   = 220.9463

EPHEMERIS_TYPE = 0
CLASSIFICATION_TYPE = U
NORAD_CAT_ID   = 19046
ELEMENT_SET_NO = 999
REV_AT_EPOCH   = 4040
BSTAR          = .24436001E-3
MEAN_MOTION_DOT = .507E-4
MEAN_MOTION_DDOT = 0

CCSDS_OMM_VERS = 2.0
CREATION_DATE  = 
ORIGINATOR     = 

OBJECT_NAME    = SL-16 R/B
OBJECT_ID      = 1988-039B
CENTER_NAME    = EARTH
REF_FRAME      = TEME
TIME_SYSTEM    = UTC
MEAN_ELEMENT_THEORY = SGP/SGP4

EPOCH          = 2025-12-22T09:36:44.134848
MEAN_MOTION    = 14.19599038
ECCENTRICITY   = .00195563
INCLINATION    = 71.0132
RA_OF_ASC_NODE = 231.9720
ARG_OF_PERICENTER = 99.7460
MEAN_ANOMALY   = 260.5875

EPHEMERIS_TYPE = 0
CLASSIFICATION_TYPE = U
NORAD_CAT_ID   = 19120
ELEMENT_SET_NO = 999
REV_AT_EPOCH   = 94741
BSTAR          = .95755431E-4
MEAN_MOTION_DOT = .155E-5
MEAN_MOTION_DDOT = 0

CCSDS_OMM_VERS = 2.0
CREATION_DATE  = 
ORIGINATOR     = 

OBJECT_NAME    = COSMOS 1953
OBJECT_ID      = 1988-050A
CENTER_NAME    = EARTH
REF_FRAME      = TEME
TIME_SYSTEM    = UTC
MEAN_ELEMENT_THEORY = SGP/SGP4

EPOCH          = 2025-12-17T18:00:23.829120
MEAN_MOTION    = 15.26995692
ECCENTRICITY   = .00135407
INCLINATION    = 82.5093
RA_OF_ASC_NODE = 240.5536
ARG_OF_PERICENTER = 56.0210
MEAN_ANOMALY   = 304.2313

EPHEMERIS_TYPE = 0
CLASSIFICATION_TYPE = U
NORAD_CAT_ID   = 19210
ELEMENT_SET_NO = 999
REV_AT_EPOCH   = 2527
BSTAR          = .17925093E-3
MEAN_MOTION_DOT = .4793E-4
MEAN_MOTION_DDOT = 0

CCSDS_OMM_VERS = 2.0
CREATION_DATE  = 
ORIGINATOR     = 

OBJECT_NAME    = SL-8 R/B
OBJECT_ID      = 1988-053B
CENTER_NAME    = EARTH
REF_FRAME      = TEME
TIME_SYSTEM    = UTC
MEAN_ELEMENT_THEORY = SGP/SGP4

EPOCH          = 2025-12-22T12:06:01.712736
MEAN_MOTION    = 14.38864957
ECCENTRICITY   = .00189648
INCLINATION    = 74.0471
RA_OF_ASC_NODE = 254.7240
ARG_OF_PERICENTER = 95.1311
MEAN_ANOMALY   = 77.6840

EPHEMERIS_TYPE = 0
CLASSIFICATION_TYPE = U
NORAD_CAT_ID   = 19257
ELEMENT_SET_NO = 999
REV_AT_EPOCH   = 96549
BSTAR          = .93201767E-4
MEAN_MOTION_DOT = .261E-5
MEAN_MOTION_DDOT = 0

CCSDS_OMM_VERS = 2.0
CREATION_DATE  = 
ORIGINATOR     = 

OBJECT_NAME    = COSMOS 1975
OBJECT_ID      = 1988-093A
CENTER_NAME    = EARTH
REF_FRAME      = TEME
TIME_SYSTEM    = UTC
MEAN_ELEMENT_THEORY = SGP/SGP4

EPOCH          = 2025-12-21T22:59:19.601664
MEAN_MOTION    = 15.26591092
ECCENTRICITY   = .0013036
INCLINATION    = 82.5191
RA_OF_ASC_NODE = 195.5996
ARG_OF_PERICENTER = 83.6720
MEAN_ANOMALY   = 276.6003

EPHEMERIS_TYPE = 0
CLASSIFICATION_TYPE = U
NORAD_CAT_ID   = 19573
ELEMENT_SET_NO = 999
REV_AT_EPOCH   = 754
BSTAR          = .24549E-3
MEAN_MOTION_DOT = .6472E-4
MEAN_MOTION_DDOT = 0

CCSDS_OMM_VERS = 2.0
CREATION_DATE  = 
ORIGINATOR     = 

OBJECT_NAME    = SL-14 R/B
OBJECT_ID      = 1988-093B
CENTER_NAME    = EARTH
REF_FRAME      = TEME
TIME_SYSTEM    = UTC
MEAN_ELEMENT_THEORY = SGP/SGP4

EPOCH          = 2025-12-22T02:11:28.436640
MEAN_MOTION    = 14.85558666
ECCENTRICITY   = .00193397
INCLINATION    = 82.5315
RA_OF_ASC_NODE = 114.8918
ARG_OF_PERICENTER = 296.7936
MEAN_ANOMALY   = 236.4026

EPHEMERIS_TYPE = 0
CLASSIFICATION_TYPE = U
NORAD_CAT_ID   = 19574
ELEMENT_SET_NO = 999
REV_AT_EPOCH   = 98951
BSTAR          = .54614242E-4
MEAN_MOTION_DOT = .497E-5
MEAN_MOTION_DDOT = 0

CCSDS_OMM_VERS = 2.0
CREATION_DATE  = 
ORIGINATOR     = 

OBJECT_NAME    = SL-16 R/B
OBJECT_ID      = 1988-102B
CENTER_NAME    = EARTH
REF_FRAME      = TEME
TIME_SYSTEM    = UTC
MEAN_ELEMENT_THEORY = SGP/SGP4

EPOCH          = 2025-12-22T08:20:19.645440
MEAN_MOTION    = 14.16140880
ECCENTRICITY   = .00125044
INCLINATION    = 71.0005
RA_OF_ASC_NODE = 314.2271
ARG_OF_PERICENTER = 135.3884
MEAN_ANOMALY   = 224.8247

EPHEMERIS_TYPE = 0
CLASSIFICATION_TYPE = U
NORAD_CAT_ID   = 19650
ELEMENT_SET_NO = 999
REV_AT_EPOCH   = 91594
BSTAR          = .14932068E-3
MEAN_MOTION_DOT = .248E-5
MEAN_MOTION_DDOT = 0

CCSDS_OMM_VERS = 2.0
CREATION_DATE  = 
ORIGINATOR     = 

OBJECT_NAME    = INTERCOSMOS 24
OBJECT_ID      = 1989-080A
CENTER_NAME    = EARTH
REF_FRAME      = TEME
TIME_SYSTEM    = UTC
MEAN_ELEMENT_THEORY = SGP/SGP4

EPOCH          = 2025-12-22T12:23:06.695808
MEAN_MOTION    = 12.59455275
ECCENTRICITY   = .11889983
INCLINATION    = 82.6051
RA_OF_ASC_NODE = 154.5968
ARG_OF_PERICENTER = 111.8510
MEAN_ANOMALY   = 261.3181

EPHEMERIS_TYPE = 0
CLASSIFICATION_TYPE = U
NORAD_CAT_ID   = 20261
ELEMENT_SET_NO = 999
REV_AT_EPOCH   = 65708
BSTAR          = .18812939E-3
MEAN_MOTION_DOT = .67E-5
MEAN_MOTION_DDOT = 0

CCSDS_OMM_VERS = 2.0
CREATION_DATE  = 
ORIGINATOR     = 

OBJECT_NAME    = SL-14 R/B
OBJECT_ID      = 1989-080C
CENTER_NAME    = EARTH
REF_FRAME      = TEME
TIME_SYSTEM    = UTC
MEAN_ELEMENT_THEORY = SGP/SGP4

EPOCH          = 2025-12-22T14:02:18.771072
MEAN_MOTION    = 12.50421037
ECCENTRICITY   = .12304856
INCLINATION    = 82.5917
RA_OF_ASC_NODE = 222.7007
ARG_OF_PERICENTER = 1.0910
MEAN_ANOMALY   = 359.2443

EPHEMERIS_TYPE = 0
CLASSIFICATION_TYPE = U
NORAD_CAT_ID   = 20262
ELEMENT_SET_NO = 999
REV_AT_EPOCH   = 65051
BSTAR          = .94581195E-4
MEAN_MOTION_DOT = .327E-5
MEAN_MOTION_DDOT = 0

CCSDS_OMM_VERS = 2.0
CREATION_DATE  = 
ORIGINATOR     = 

OBJECT_NAME    = DELTA 1 R/B
OBJECT_ID      = 1989-089B
CENTER_NAME    = EARTH
REF_FRAME      = TEME
TIME_SYSTEM    = UTC
MEAN_ELEMENT_THEORY = SGP/SGP4

EPOCH          = 2025-12-22T03:48:49.106016
MEAN_MOTION    = 14.50579427
ECCENTRICITY   = .00693841
INCLINATION    = 97.0745
RA_OF_ASC_NODE = 210.9033
ARG_OF_PERICENTER = 8.8387
MEAN_ANOMALY   = 351.4015

EPHEMERIS_TYPE = 0
CLASSIFICATION_TYPE = U
NORAD_CAT_ID   = 20323
ELEMENT_SET_NO = 999
REV_AT_EPOCH   = 88449
BSTAR          = .88158208E-4
MEAN_MOTION_DOT = .321E-5
MEAN_MOTION_DDOT = 0

CCSDS_OMM_VERS = 2.0
CREATION_DATE  = 
ORIGINATOR     = 

OBJECT_NAME    = ARIANE 40 R/B
OBJECT_ID      = 1990-005H
CENTER_NAME    = EARTH
REF_FRAME      = TEME
TIME_SYSTEM    = UTC
MEAN_ELEMENT_THEORY = SGP/SGP4

EPOCH          = 2025-12-22T09:34:27.971904
MEAN_MOTION    = 14.39805412
ECCENTRICITY   = .00112353
INCLINATION    = 98.3229
RA_OF_ASC_NODE = 54.3034
ARG_OF_PERICENTER = 79.6523
MEAN_ANOMALY   = 280.5932

EPHEMERIS_TYPE = 0
CLASSIFICATION_TYPE = U
NORAD_CAT_ID   = 20443
ELEMENT_SET_NO = 999
REV_AT_EPOCH   = 88168
BSTAR          = .10284644E-3
MEAN_MOTION_DOT = .28E-5
MEAN_MOTION_DDOT = 0

