COSMOS 1933             
1 18958U 88020A   25356.31638824  .00004287  00000+0  21428-3 0  9995
2 18958  82.5141 327.4154 0006220 102.9929 257.2000 15.17184739 38498
SL-3 R/B                
1 19046U 88032B   25356.61235827  .00005070  00000+0  24436-3 0  9999
2 19046  97.5089 335.2649 0027718 139.3845 220.9463 15.18833825 40408
SL-16 R/B               
1 19120U 88039B   25356.40051082  .00000155  00000+0  95755-4 0  9997
2 19120  71.0132 231.9720 0019556  99.7460 260.5875 14.19599038947411
COSMOS 1953             
1 19210U 88050A   25351.75027580  .00004793  00000+0  17925-3 0  9993
2 19210  82.5093 240.5536 0013540  56.0210 304.2313 15.26995692 25270
SL-8 R/B                
1 19257U 88053B   25356.50418649  .00000261  00000+0  93202-4 0  9994
2 19257  74.0471 254.7240 0018964  95.1311  77.6840 14.38864957965491
COSMOS 1975             
1 19573U 88093A   25355.95786576  .00006472  00000+0  24549-3 0  9991
2 19573  82.5191 195.5996 0013036  83.6720 276.6003 15.26591092  7546
SL-14 R/B               
1 19574U 88093B   25356.09130135  .00000497  00000+0  54614-4 0  9990
2 19574  82.5315 114.8918 0019339 296.7936 236.4026 14.85558666989510
SL-16 R/B               
1 19650U 88102B   25356.34744960  .00000248  00000+0  14932-3 0  9993
2 19650  71.0005 314.2271 0012504 135.3884 224.8247 14.16140880915940
INTERCOSMOS 24          
1 20261U 89080A   25356.51604972  .00000670  00000+0  18813-3 0  9997
2 20261  82.6051 154.5968 1188998 111.8510 261.3181 12.59455275657087
SL-14 R/B               
1 20262U 89080C   25356.58493948  .00000327  00000+0  94581-4 0  9990
2 20262  82.5917 222.7007 1230485   1.0910 359.2443 12.50421037650512
DELTA 1 R/B             
1 20323U 89089B   25356.15890169  .00000321  00000+0  88158-4 0  9993
2 20323  97.0745 210.9033 0069384   8.8387 351.4015 14.50579427884492
ARIANE 40 R/B           
1 20443U 90005H   25356.39893486  .00000280  00000+0  10285-3 0  9996
2 20443  98.3229  54.3034 0011235  79.6523 280.5932 14.39805412881688
